[{"OBJECT_NAME":"STARLINK-5641","OBJECT_ID":"2023-013AE","EPOCH":"2026-03-08T16:39:49.625568","MEAN_MOTION":15.0253503,"ECCENTRICITY":0.00015251,"INCLINATION":43.0045,"RA_OF_ASC_NODE":305.4012,"ARG_OF_PERICENTER":271.085,"MEAN_ANOMALY":88.9818,"EPHEMERIS_TYPE":0,"CLASSIFICATION_TYPE":"U","NORAD_CAT_ID":55359,"ELEMENT_SET_NO":999,"REV_AT_EPOCH":17156,"BSTAR":-5.31215e-6,"MEAN_MOTION_DOT":-2.75e-6,"MEAN_MOTION_DDOT":0},{"OBJECT_NAME":"OBJECT G","OBJECT_ID":"2025-292G","EPOCH":"2026-03-09T22:41:34.708704","MEAN_MOTION":15.05879657,"ECCENTRICITY":0.00150455,"INCLINATION":97.6425,"RA_OF_ASC_NODE":145.7524,"ARG_OF_PERICENTER":352.95,"MEAN_ANOMALY":7.1513,"EPHEMERIS_TYPE":0,"CLASSIFICATION_TYPE":"U","NORAD_CAT_ID":66999,"ELEMENT_SET_NO":999,"REV_AT_EPOCH":1351,"BSTAR":0.00047153864,"MEAN_MOTION_DOT":6.807e-5,"MEAN_MOTION_DDOT":0}]
